ALOS (DAICHI)           
1 28931U 06002A   26036.77792319  .00002319  00000+0  39757-3 0  9991
2 28931  98.1167 352.9077 0002035  68.3188 291.8234 14.69703869 68796
H-2A R/B                
1 28932U 06002B   26036.92878256  .00012682  00000+0  64452-3 0  9998
2 28932  98.2365 181.2515 0053011 350.5681   9.4548 15.15785430 89624
RESURS-DK 1             
1 29228U 06021A   26036.92613166  .00004474  00000+0  26201-3 0  9995
2 29228  69.9351 319.1750 0004851 207.6347 152.4561 15.12555233 82726
CZ-4B R/B               
1 29507U 06046C   26036.94208821  .00007744  00000+0  39451-3 0  9996
2 29507  97.5648  81.9334 0033984  20.2299 340.0272 15.16557863 55233
CZ-2C R/B               
1 31114U 07010B   26036.88236249  .00000154  00000+0  89478-4 0  9996
2 31114  98.3970 151.7589 0059441  27.7511 332.6817 14.20235017975208
COSMO-SKYMED 1          
1 31598U 07023A   26036.96894111  .00006345  00000+0  56661-3 0  9998
2 31598  97.8855 227.7541 0001046  74.4213 285.7124 14.96285328 10165
COSMOS 2428             
1 31792U 07029A   26036.96000353  .00000363  00000+0  22036-3 0  9990
2 31792  70.9397 269.9493 0007128 312.2131  47.8384 14.12930790959612
SL-16 R/B               
1 31793U 07029B   26036.96895169  .00000448  00000+0  25685-3 0  9995
2 31793  70.9731 239.0627 0001869 275.8386 188.4055 14.14829256960888
KORONAS-FOTON           
1 33504U 09003A   26036.79058991  .00015166  00000+0  34867-3 0  9991
2 33504  82.4333 309.0167 0008894 274.9738  85.0493 15.42488487940828
CZ-2C R/B               
1 37731U 11030B   26036.86003222  .00002222  00000+0  28585-3 0  9994
2 37731  97.8491 354.7766 0054224  93.7461 324.5314 14.81100512785382
H-2A R/B                
1 38341U 12025E   26036.87034080  .00005425  00000+0  49322-3 0  9994
2 38341  98.4683   1.3917 0046121  57.6604 302.9067 14.94888976743467
SHIJIAN-16 (SJ-16)      
1 39358U 13057A   26036.98519905  .00001112  00000+0  11168-3 0  9991
2 39358  74.9701 245.1047 0016975 191.2404 168.8408 14.92230571666771
