CCSDS_OMM_VERS = 2.0
CREATION_DATE  = 
ORIGINATOR     = 

OBJECT_NAME    = ALOS (DAICHI)
OBJECT_ID      = 2006-002A
CENTER_NAME    = EARTH
REF_FRAME      = TEME
TIME_SYSTEM    = UTC
MEAN_ELEMENT_THEORY = SGP/SGP4

EPOCH          = 2026-02-05T18:40:12.563616
MEAN_MOTION    = 14.69703869
ECCENTRICITY   = .00020358
INCLINATION    = 98.1167
RA_OF_ASC_NODE = 352.9077
ARG_OF_PERICENTER = 68.3188
MEAN_ANOMALY   = 291.8234

EPHEMERIS_TYPE = 0
CLASSIFICATION_TYPE = U
NORAD_CAT_ID   = 28931
ELEMENT_SET_NO = 999
REV_AT_EPOCH   = 6879
BSTAR          = .39756836E-3
MEAN_MOTION_DOT = .2319E-4
MEAN_MOTION_DDOT = 0

CCSDS_OMM_VERS = 2.0
CREATION_DATE  = 
ORIGINATOR     = 

OBJECT_NAME    = H-2A R/B
OBJECT_ID      = 2006-002B
CENTER_NAME    = EARTH
REF_FRAME      = TEME
TIME_SYSTEM    = UTC
MEAN_ELEMENT_THEORY = SGP/SGP4

EPOCH          = 2026-02-05T22:17:26.813184
MEAN_MOTION    = 15.15785430
ECCENTRICITY   = .00530112
INCLINATION    = 98.2365
RA_OF_ASC_NODE = 181.2515
ARG_OF_PERICENTER = 350.5681
MEAN_ANOMALY   = 9.4548

EPHEMERIS_TYPE = 0
CLASSIFICATION_TYPE = U
NORAD_CAT_ID   = 28932
ELEMENT_SET_NO = 999
REV_AT_EPOCH   = 8962
BSTAR          = .64451905E-3
MEAN_MOTION_DOT = .12682E-3
MEAN_MOTION_DDOT = 0

CCSDS_OMM_VERS = 2.0
CREATION_DATE  = 
ORIGINATOR     = 

OBJECT_NAME    = RESURS-DK 1
OBJECT_ID      = 2006-021A
CENTER_NAME    = EARTH
REF_FRAME      = TEME
TIME_SYSTEM    = UTC
MEAN_ELEMENT_THEORY = SGP/SGP4

EPOCH          = 2026-02-05T22:13:37.775424
MEAN_MOTION    = 15.12555233
ECCENTRICITY   = .00048515
INCLINATION    = 69.9351
RA_OF_ASC_NODE = 319.1750
ARG_OF_PERICENTER = 207.6347
MEAN_ANOMALY   = 152.4561

EPHEMERIS_TYPE = 0
CLASSIFICATION_TYPE = U
NORAD_CAT_ID   = 29228
ELEMENT_SET_NO = 999
REV_AT_EPOCH   = 8272
BSTAR          = .26200778E-3
MEAN_MOTION_DOT = .4474E-4
MEAN_MOTION_DDOT = 0

CCSDS_OMM_VERS = 2.0
CREATION_DATE  = 
ORIGINATOR     = 

OBJECT_NAME    = CZ-4B R/B
OBJECT_ID      = 2006-046C
CENTER_NAME    = EARTH
REF_FRAME      = TEME
TIME_SYSTEM    = UTC
MEAN_ELEMENT_THEORY = SGP/SGP4

EPOCH          = 2026-02-05T22:36:36.421344
MEAN_MOTION    = 15.16557863
ECCENTRICITY   = .00339848
INCLINATION    = 97.5648
RA_OF_ASC_NODE = 81.9334
ARG_OF_PERICENTER = 20.2299
MEAN_ANOMALY   = 340.0272

EPHEMERIS_TYPE = 0
CLASSIFICATION_TYPE = U
NORAD_CAT_ID   = 29507
ELEMENT_SET_NO = 999
REV_AT_EPOCH   = 5523
BSTAR          = .39450738E-3
MEAN_MOTION_DOT = .7744E-4
MEAN_MOTION_DDOT = 0

CCSDS_OMM_VERS = 2.0
CREATION_DATE  = 
ORIGINATOR     = 

OBJECT_NAME    = CZ-2C R/B
OBJECT_ID      = 2007-010B
CENTER_NAME    = EARTH
REF_FRAME      = TEME
TIME_SYSTEM    = UTC
MEAN_ELEMENT_THEORY = SGP/SGP4

EPOCH          = 2026-02-05T21:10:36.119136
MEAN_MOTION    = 14.20235017
ECCENTRICITY   = .00594418
INCLINATION    = 98.3970
RA_OF_ASC_NODE = 151.7589
ARG_OF_PERICENTER = 27.7511
MEAN_ANOMALY   = 332.6817

EPHEMERIS_TYPE = 0
CLASSIFICATION_TYPE = U
NORAD_CAT_ID   = 31114
ELEMENT_SET_NO = 999
REV_AT_EPOCH   = 97520
BSTAR          = .89478164E-4
MEAN_MOTION_DOT = .154E-5
MEAN_MOTION_DDOT = 0

CCSDS_OMM_VERS = 2.0
CREATION_DATE  = 
ORIGINATOR     = 

OBJECT_NAME    = COSMO-SKYMED 1
OBJECT_ID      = 2007-023A
CENTER_NAME    = EARTH
REF_FRAME      = TEME
TIME_SYSTEM    = UTC
MEAN_ELEMENT_THEORY = SGP/SGP4

EPOCH          = 2026-02-05T23:15:16.511904
MEAN_MOTION    = 14.96285328
ECCENTRICITY   = .00010469
INCLINATION    = 97.8855
RA_OF_ASC_NODE = 227.7541
ARG_OF_PERICENTER = 74.4213
MEAN_ANOMALY   = 285.7124

EPHEMERIS_TYPE = 0
CLASSIFICATION_TYPE = U
NORAD_CAT_ID   = 31598
ELEMENT_SET_NO = 999
REV_AT_EPOCH   = 1016
BSTAR          = .56660917E-3
MEAN_MOTION_DOT = .6345E-4
MEAN_MOTION_DDOT = 0

CCSDS_OMM_VERS = 2.0
CREATION_DATE  = 
ORIGINATOR     = 

OBJECT_NAME    = COSMOS 2428
OBJECT_ID      = 2007-029A
CENTER_NAME    = EARTH
REF_FRAME      = TEME
TIME_SYSTEM    = UTC
MEAN_ELEMENT_THEORY = SGP/SGP4

EPOCH          = 2026-02-05T23:02:24.304992
MEAN_MOTION    = 14.12930790
ECCENTRICITY   = .00071284
INCLINATION    = 70.9397
RA_OF_ASC_NODE = 269.9493
ARG_OF_PERICENTER = 312.2131
MEAN_ANOMALY   = 47.8384

EPHEMERIS_TYPE = 0
CLASSIFICATION_TYPE = U
NORAD_CAT_ID   = 31792
ELEMENT_SET_NO = 999
REV_AT_EPOCH   = 95961
BSTAR          = .22036087E-3
MEAN_MOTION_DOT = .363E-5
MEAN_MOTION_DDOT = 0

CCSDS_OMM_VERS = 2.0
CREATION_DATE  = 
ORIGINATOR     = 

OBJECT_NAME    = SL-16 R/B
OBJECT_ID      = 2007-029B
CENTER_NAME    = EARTH
REF_FRAME      = TEME
TIME_SYSTEM    = UTC
MEAN_ELEMENT_THEORY = SGP/SGP4

EPOCH          = 2026-02-05T23:15:17.426016
MEAN_MOTION    = 14.14829256
ECCENTRICITY   = .0001869
INCLINATION    = 70.9731
RA_OF_ASC_NODE = 239.0627
ARG_OF_PERICENTER = 275.8386
MEAN_ANOMALY   = 188.4055

EPHEMERIS_TYPE = 0
CLASSIFICATION_TYPE = U
NORAD_CAT_ID   = 31793
ELEMENT_SET_NO = 999
REV_AT_EPOCH   = 96088
BSTAR          = .25685327E-3
MEAN_MOTION_DOT = .448E-5
MEAN_MOTION_DDOT = 0

CCSDS_OMM_VERS = 2.0
CREATION_DATE  = 
ORIGINATOR     = 

OBJECT_NAME    = KORONAS-FOTON
OBJECT_ID      = 2009-003A
CENTER_NAME    = EARTH
REF_FRAME      = TEME
TIME_SYSTEM    = UTC
MEAN_ELEMENT_THEORY = SGP/SGP4

EPOCH          = 2026-02-05T18:58:26.968224
MEAN_MOTION    = 15.42488487
ECCENTRICITY   = .00088949
INCLINATION    = 82.4333
RA_OF_ASC_NODE = 309.0167
ARG_OF_PERICENTER = 274.9738
MEAN_ANOMALY   = 85.0493

EPHEMERIS_TYPE = 0
CLASSIFICATION_TYPE = U
NORAD_CAT_ID   = 33504
ELEMENT_SET_NO = 999
REV_AT_EPOCH   = 94082
BSTAR          = .34867495E-3
MEAN_MOTION_DOT = .15166E-3
MEAN_MOTION_DDOT = 0

CCSDS_OMM_VERS = 2.0
CREATION_DATE  = 
ORIGINATOR     = 

OBJECT_NAME    = CZ-2C R/B
OBJECT_ID      = 2011-030B
CENTER_NAME    = EARTH
REF_FRAME      = TEME
TIME_SYSTEM    = UTC
MEAN_ELEMENT_THEORY = SGP/SGP4

EPOCH          = 2026-02-05T20:38:26.783808
MEAN_MOTION    = 14.81100512
ECCENTRICITY   = .00542245
INCLINATION    = 97.8491
RA_OF_ASC_NODE = 354.7766
ARG_OF_PERICENTER = 93.7461
MEAN_ANOMALY   = 324.5314

EPHEMERIS_TYPE = 0
CLASSIFICATION_TYPE = U
NORAD_CAT_ID   = 37731
ELEMENT_SET_NO = 999
REV_AT_EPOCH   = 78538
BSTAR          = .28585406E-3
MEAN_MOTION_DOT = .2222E-4
MEAN_MOTION_DDOT = 0

CCSDS_OMM_VERS = 2.0
CREATION_DATE  = 
ORIGINATOR     = 

OBJECT_NAME    = H-2A R/B
OBJECT_ID      = 2012-025E
CENTER_NAME    = EARTH
REF_FRAME      = TEME
TIME_SYSTEM    = UTC
MEAN_ELEMENT_THEORY = SGP/SGP4

EPOCH          = 2026-02-05T20:53:17.445120
MEAN_MOTION    = 14.94888976
ECCENTRICITY   = .00461213
INCLINATION    = 98.4683
RA_OF_ASC_NODE = 1.3917
ARG_OF_PERICENTER = 57.6604
MEAN_ANOMALY   = 302.9067

EPHEMERIS_TYPE = 0
CLASSIFICATION_TYPE = U
NORAD_CAT_ID   = 38341
ELEMENT_SET_NO = 999
REV_AT_EPOCH   = 74346
BSTAR          = .49321816E-3
MEAN_MOTION_DOT = .5425E-4
MEAN_MOTION_DDOT = 0

CCSDS_OMM_VERS = 2.0
CREATION_DATE  = 
ORIGINATOR     = 

OBJECT_NAME    = SHIJIAN-16 (SJ-16)
OBJECT_ID      = 2013-057A
CENTER_NAME    = EARTH
REF_FRAME      = TEME
TIME_SYSTEM    = UTC
MEAN_ELEMENT_THEORY = SGP/SGP4

EPOCH          = 2026-02-05T23:38:41.197920
MEAN_MOTION    = 14.92230571
ECCENTRICITY   = .00169751
INCLINATION    = 74.9701
RA_OF_ASC_NODE = 245.1047
ARG_OF_PERICENTER = 191.2404
MEAN_ANOMALY   = 168.8408

EPHEMERIS_TYPE = 0
CLASSIFICATION_TYPE = U
NORAD_CAT_ID   = 39358
ELEMENT_SET_NO = 999
REV_AT_EPOCH   = 66677
BSTAR          = .11168163E-3
MEAN_MOTION_DOT = .1112E-4
MEAN_MOTION_DDOT = 0

